{
  "norad_id": 55164,
  "name": "ONEWEB-0623",
  "history": [
    {
      "epoch": "2026-03-28T19:54:33.987456Z",
      "apogee_km": 1194.5466482884867,
      "perigee_km": 1192.862065023457,
      "latitude_deg": 3.1214743833368404e-05,
      "longitude_deg": -103.04750085580984,
      "height_km": 1196.3414976619054,
      "semi_major_axis_km": 7571.841356655971,
      "eccentricity": 0.00011124,
      "inclination_deg": 87.9177,
      "raan_deg": 21.8385,
      "arg_perigee_deg": 72.046,
      "mean_anomaly_deg": 288.0793,
      "mean_motion_rev_day": 13.17651324
    },
    {
      "epoch": "2026-03-29T05:01:18.353280Z",
      "apogee_km": 1194.5398947407575,
      "perigee_km": 1192.8695464571938,
      "latitude_deg": -1.476764768840625e-05,
      "longitude_deg": 119.81811007826676,
      "height_km": 1196.3540576127414,
      "semi_major_axis_km": 7571.841720598975,
      "eccentricity": 0.0001103,
      "inclination_deg": 87.9178,
      "raan_deg": 21.7632,
      "arg_perigee_deg": 72.7646,
      "mean_anomaly_deg": 287.3606,
      "mean_motion_rev_day": 13.17651229
    },
    {
      "epoch": "2026-03-30T04:42:49.709088Z",
      "apogee_km": 1194.52596988579,
      "perigee_km": 1192.881517513073,
      "latitude_deg": -4.78641893558376e-05,
      "longitude_deg": 123.2685626664729,
      "height_km": 1196.3839795547676,
      "semi_major_axis_km": 7571.840743699431,
      "eccentricity": 0.00010859,
      "inclination_deg": 87.918,
      "raan_deg": 21.5673,
      "arg_perigee_deg": 74.7274,
      "mean_anomaly_deg": 285.3977,
      "mean_motion_rev_day": 13.17651484
    },
    {
      "epoch": "2026-03-30T12:00:13.192416Z",
      "apogee_km": 1194.5193913440735,
      "perigee_km": 1192.8870540288663,
      "latitude_deg": -7.752571992680631e-05,
      "longitude_deg": 13.56113097717381,
      "height_km": 1196.3894224609342,
      "semi_major_axis_km": 7571.84022268647,
      "eccentricity": 0.00010779,
      "inclination_deg": 87.918,
      "raan_deg": 21.5071,
      "arg_perigee_deg": 75.0439,
      "mean_anomaly_deg": 285.0811,
      "mean_motion_rev_day": 13.1765162
    },
    {
      "epoch": "2026-03-30T19:17:36.725856Z",
      "apogee_km": 1194.5241447876506,
      "perigee_km": 1192.8839325818508,
      "latitude_deg": -7.352755294667231e-05,
      "longitude_deg": -96.14650886621263,
      "height_km": 1196.3989097685328,
      "semi_major_axis_km": 7571.841038684751,
      "eccentricity": 0.00010831,
      "inclination_deg": 87.9181,
      "raan_deg": 21.4469,
      "arg_perigee_deg": 75.7442,
      "mean_anomaly_deg": 284.3809,
      "mean_motion_rev_day": 13.17651407
    },
    {
      "epoch": "2026-03-31T13:31:05.473920Z",
      "apogee_km": 1194.518826251372,
      "perigee_km": 1192.8893660474814,
      "latitude_deg": -2.989645117242508e-05,
      "longitude_deg": -10.41544974295888,
      "height_km": 1196.4096848612435,
      "semi_major_axis_km": 7571.841096149426,
      "eccentricity": 0.0001076,
      "inclination_deg": 87.918,
      "raan_deg": 21.2962,
      "arg_perigee_deg": 76.4247,
      "mean_anomaly_deg": 283.7004,
      "mean_motion_rev_day": 13.17651392
    },
    {
      "epoch": "2026-04-01T13:12:36.783072Z",
      "apogee_km": 1194.5117113157075,
      "perigee_km": 1192.89436628342,
      "latitude_deg": 1.0643081762942048e-05,
      "longitude_deg": -6.964698896149118,
      "height_km": 1196.4238192637092,
      "semi_major_axis_km": 7571.840038799563,
      "eccentricity": 0.0001068,
      "inclination_deg": 87.9181,
      "raan_deg": 21.1004,
      "arg_perigee_deg": 77.426,
      "mean_anomaly_deg": 282.6991,
      "mean_motion_rev_day": 13.17651668
    },
    {
      "epoch": "2026-04-02T12:54:10.384416Z",
      "apogee_km": 1194.4546190644833,
      "perigee_km": 1193.0688101617352,
      "latitude_deg": 4.191569479693717e-05,
      "longitude_deg": -3.5245256962752647,
      "height_km": 1196.5766112716694,
      "semi_major_axis_km": 7571.8987146131085,
      "eccentricity": 9.151e-05,
      "inclination_deg": 87.9187,
      "raan_deg": 20.9036,
      "arg_perigee_deg": 83.1913,
      "mean_anomaly_deg": 276.9323,
      "mean_motion_rev_day": 13.17636352
    },
    {
      "epoch": "2026-04-03T18:03:43.991136Z",
      "apogee_km": 1194.3989595868134,
      "perigee_km": 1193.0314830756406,
      "latitude_deg": 1.502765078348269e-05,
      "longitude_deg": -82.35278574640861,
      "height_km": 1196.5133977958642,
      "semi_major_axis_km": 7571.852221331226,
      "eccentricity": 9.03e-05,
      "inclination_deg": 87.9186,
      "raan_deg": 20.6629,
      "arg_perigee_deg": 81.6824,
      "mean_anomaly_deg": 278.441,
      "mean_motion_rev_day": 13.17648488
    },
    {
      "epoch": "2026-04-04T06:49:10.499520Z",
      "apogee_km": 1194.4772108995294,
      "perigee_km": 1192.999180861293,
      "latitude_deg": -2.0320483819785815e-05,
      "longitude_deg": 85.65783478747836,
      "height_km": 1196.6017206043844,
      "semi_major_axis_km": 7571.875195880411,
      "eccentricity": 9.76e-05,
      "inclination_deg": 87.9194,
      "raan_deg": 20.5579,
      "arg_perigee_deg": 87.4063,
      "mean_anomaly_deg": 272.718,
      "mean_motion_rev_day": 13.17642491
    },
    {
      "epoch": "2026-04-05T10:09:23.743872Z",
      "apogee_km": 1194.507667271625,
      "perigee_km": 1192.9053137521632,
      "latitude_deg": -4.475928726045808e-05,
      "longitude_deg": 34.25415646218574,
      "height_km": 1196.5490582871137,
      "semi_major_axis_km": 7571.843490511894,
      "eccentricity": 0.00010581,
      "inclination_deg": 87.9185,
      "raan_deg": 20.3321,
      "arg_perigee_deg": 86.1158,
      "mean_anomaly_deg": 274.0094,
      "mean_motion_rev_day": 13.17650767
    },
    {
      "epoch": "2026-04-05T19:16:08.171904Z",
      "apogee_km": 1194.5119291949568,
      "perigee_km": 1192.9021551515907,
      "latitude_deg": -7.848991363606549e-06,
      "longitude_deg": -102.88049023523628,
      "height_km": 1196.5567590515927,
      "semi_major_axis_km": 7571.844042173274,
      "eccentricity": 0.0001063,
      "inclination_deg": 87.9185,
      "raan_deg": 20.2568,
      "arg_perigee_deg": 86.6446,
      "mean_anomaly_deg": 273.4807,
      "mean_motion_rev_day": 13.17650623
    },
    {
      "epoch": "2026-04-06T04:22:52.495392Z",
      "apogee_km": 1194.5090197415648,
      "perigee_km": 1192.897732109568,
      "latitude_deg": -2.9150759122575442e-05,
      "longitude_deg": 119.98529762896779,
      "height_km": 1196.5652512051224,
      "semi_major_axis_km": 7571.840375925566,
      "eccentricity": 0.0001064,
      "inclination_deg": 87.9185,
      "raan_deg": 20.1815,
      "arg_perigee_deg": 87.5133,
      "mean_anomaly_deg": 272.612,
      "mean_motion_rev_day": 13.1765158
    },
    {
      "epoch": "2026-04-07T05:53:44.700000Z",
      "apogee_km": 1194.5084563956589,
      "perigee_km": 1192.894594732319,
      "latitude_deg": -6.091550455902109e-05,
      "longitude_deg": 96.00913119772139,
      "height_km": 1196.5945000755294,
      "semi_major_axis_km": 7571.838525563989,
      "eccentricity": 0.00010657,
      "inclination_deg": 87.9186,
      "raan_deg": 19.9707,
      "arg_perigee_deg": 89.7257,
      "mean_anomaly_deg": 270.3996,
      "mean_motion_rev_day": 13.17652063
    },
    {
      "epoch": "2026-04-07T20:28:31.695168Z",
      "apogee_km": 1194.5169105566556,
      "perigee_km": 1192.887450764977,
      "latitude_deg": 2.1787587387029153e-05,
      "longitude_deg": -123.4059486532381,
      "height_km": 1196.6079548059422,
      "semi_major_axis_km": 7571.839180660816,
      "eccentricity": 0.0001076,
      "inclination_deg": 87.9185,
      "raan_deg": 19.8502,
      "arg_perigee_deg": 90.6304,
      "mean_anomaly_deg": 269.4951,
      "mean_motion_rev_day": 13.17651892
    },
    {
      "epoch": "2026-04-08T05:35:16.062720Z",
      "apogee_km": 1194.5199487739146,
      "perigee_km": 1192.884734349711,
      "latitude_deg": 8.187487081210773e-05,
      "longitude_deg": 99.4595577080254,
      "height_km": 1196.620849563469,
      "semi_major_axis_km": 7571.839341561813,
      "eccentricity": 0.00010798,
      "inclination_deg": 87.9184,
      "raan_deg": 19.7748,
      "arg_perigee_deg": 91.5216,
      "mean_anomaly_deg": 268.604,
      "mean_motion_rev_day": 13.1765185
    },
    {
      "epoch": "2026-04-09T19:51:34.443072Z",
      "apogee_km": 1194.561670609506,
      "perigee_km": 1192.8489198823218,
      "latitude_deg": 1.9456897500634448e-05,
      "longitude_deg": -116.50499996404731,
      "height_km": 1196.6600780868666,
      "semi_major_axis_km": 7571.842295245913,
      "eccentricity": 0.0001131,
      "inclination_deg": 87.9185,
      "raan_deg": 19.4586,
      "arg_perigee_deg": 93.8869,
      "mean_anomaly_deg": 266.2392,
      "mean_motion_rev_day": 13.17651079
    },
    {
      "epoch": "2026-04-10T04:58:18.753600Z",
      "apogee_km": 1194.5729977696947,
      "perigee_km": 1192.834351713961,
      "latitude_deg": 3.5087630152018346e-05,
      "longitude_deg": 106.36064319378593,
      "height_km": 1196.6694318514187,
      "semi_major_axis_km": 7571.840674741828,
      "eccentricity": 0.00011481,
      "inclination_deg": 87.9181,
      "raan_deg": 19.3831,
      "arg_perigee_deg": 94.5561,
      "mean_anomaly_deg": 265.5702,
      "mean_motion_rev_day": 13.17651502
    },
    {
      "epoch": "2026-04-11T19:14:37.108032Z",
      "apogee_km": 1194.5990211934113,
      "perigee_km": 1192.8075237849407,
      "latitude_deg": -2.178167070952899e-05,
      "longitude_deg": -109.60400434547705,
      "height_km": 1196.7005016143373,
      "semi_major_axis_km": 7571.840272489176,
      "eccentricity": 0.0001183,
      "inclination_deg": 87.9183,
      "raan_deg": 19.0667,
      "arg_perigee_deg": 96.446,
      "mean_anomaly_deg": 263.6806,
      "mean_motion_rev_day": 13.17651607
    }
  ]
}